ONEWEB-0603             
1 54667U 22166AB  23305.91474799  .00000072  00000+0  14283-3 0  9997
2 54667  87.9229  74.7416 0002199  98.9207 261.2175 13.21830021 44881
ONEWEB-0604             
1 54668U 22166AC  23306.12922830 -.00000036  00000+0 -11948-3 0  9993
2 54668  87.9221  74.6952 0002427  87.6118 272.5294 13.21828186 45346
ONEWEB-0605             
1 54669U 22166AD  23306.42569231 -.00000162  00000+0 -42303-3 0  9998
2 54669  87.9236  74.6621 0002307 108.3452 251.7933 13.21823951 45451
ONEWEB-0606             
1 54670U 22166AE  23306.06929138  .00000081  00000+0  16546-3 0  9994
2 54670  87.9225  74.7190 0001380  97.2911 262.8380 13.21829760 45452
ONEWEB-0607             
1 54671U 22166AF  23306.41466964  .00000098  00000+0  20461-3 0  9996
2 54671  87.9220  74.6382 0002003  97.4938 262.6423 13.21823583 45479
ONEWEB-0608             
1 54672U 22166AG  23306.42097803  .00000092  00000+0  19020-3 0  9993
2 54672  87.9230  74.6425 0002418 104.9509 255.1893 13.21822893 45489
ONEWEB-0610             
1 54673U 22166AH  23306.09926842  .00000064  00000+0  12249-3 0  9996
2 54673  87.9230  74.7066 0002246 104.2244 255.9139 13.21821674 45353
ONEWEB-0611             
1 54674U 22166AJ  23306.09295205  .00000035  00000+0  52478-4 0  9996
2 54674  87.9228  74.7096 0001306  85.1414 274.9869 13.21824567 45340
